{"type":"FeatureCollection","features":[{"type":"Feature","id":"C01-V01","properties":{"id":"C01-V01","blockId":"C01","type":"borde-calzada","status":"interpretacion-visual-por-contrastar","sourceSha256":"ef453bbe2db667f3916e718133b81210e7ff53a51b67c412941a613f5288a074"},"geometry":{"type":"LineString","coordinates":[[-110.95622777938843,29.076233153241517],[-110.95620632171631,29.076148762704218]]}},{"type":"Feature","id":"C01-V02","properties":{"id":"C01-V02","blockId":"C01","type":"borde-calzada","status":"interpretacion-visual-por-contrastar","sourceSha256":"ef453bbe2db667f3916e718133b81210e7ff53a51b67c412941a613f5288a074"},"geometry":{"type":"LineString","coordinates":[[-110.95619022846222,29.0760643720978],[-110.95617413520813,29.076008111655124]]}},{"type":"Feature","id":"C02-V01","properties":{"id":"C02-V01","blockId":"C02","type":"borde-calzada","status":"interpretacion-visual-por-contrastar","sourceSha256":"ef453bbe2db667f3916e718133b81210e7ff53a51b67c412941a613f5288a074"},"geometry":{"type":"LineString","coordinates":[[-110.95634579658508,29.075989358167405],[-110.95633506774902,29.075928409308744]]}},{"type":"Feature","id":"C03-V01","properties":{"id":"C03-V01","blockId":"C03","type":"borde-calzada","status":"interpretacion-visual-por-contrastar","sourceSha256":"ef453bbe2db667f3916e718133b81210e7ff53a51b67c412941a613f5288a074"},"geometry":{"type":"LineString","coordinates":[[-110.9573221206665,29.07590496743043],[-110.95727920532227,29.075844018521853],[-110.95722019672394,29.075811199863846]]}},{"type":"Feature","id":"C03-V02","properties":{"id":"C03-V02","blockId":"C03","type":"borde-calzada","status":"interpretacion-visual-por-contrastar","sourceSha256":"ef453bbe2db667f3916e718133b81210e7ff53a51b67c412941a613f5288a074"},"geometry":{"type":"LineString","coordinates":[[-110.95713436603546,29.075787757958867],[-110.9570699930191,29.075792446340294],[-110.95701098442078,29.075811199863846]]}},{"type":"Feature","id":"C04-V01","properties":{"id":"C04-V01","blockId":"C04","type":"borde-calzada","status":"interpretacion-visual-por-contrastar","sourceSha256":"ef453bbe2db667f3916e718133b81210e7ff53a51b67c412941a613f5288a074"},"geometry":{"type":"LineString","coordinates":[[-110.95712900161743,29.07481725841216],[-110.95696270465851,29.074845388962437]]}},{"type":"Feature","id":"C08-V01","properties":{"id":"C08-V01","blockId":"C08","type":"borde-calzada","status":"interpretacion-visual-por-contrastar","sourceSha256":"ef453bbe2db667f3916e718133b81210e7ff53a51b67c412941a613f5288a074"},"geometry":{"type":"LineString","coordinates":[[-110.95539629459381,29.075351737554186],[-110.95531582832336,29.07537049115795]]}},{"type":"Feature","id":"C09-V01","properties":{"id":"C09-V01","blockId":"C09","type":"borde-calzada","status":"interpretacion-visual-por-contrastar","sourceSha256":"ef453bbe2db667f3916e718133b81210e7ff53a51b67c412941a613f5288a074"},"geometry":{"type":"LineString","coordinates":[[-110.95520317554474,29.074550017801563],[-110.95494031906128,29.07455939467683],[-110.95483839511871,29.07456408311414]]}},{"type":"Feature","id":"C10-V01","properties":{"id":"C10-V01","blockId":"C10","type":"borde-calzada","status":"interpretacion-visual-por-contrastar","sourceSha256":"ef453bbe2db667f3916e718133b81210e7ff53a51b67c412941a613f5288a074"},"geometry":{"type":"LineString","coordinates":[[-110.9560078382492,29.07448906809156],[-110.95584154129028,29.07451719873143],[-110.95573425292969,29.07453595248707]]}},{"type":"Feature","id":"C11-V01","properties":{"id":"C11-V01","blockId":"C11","type":"borde-calzada","status":"interpretacion-visual-por-contrastar","sourceSha256":"ef453bbe2db667f3916e718133b81210e7ff53a51b67c412941a613f5288a074"},"geometry":{"type":"LineString","coordinates":[[-110.95538556575775,29.074409364570236],[-110.95538556575775,29.07429684184696]]}},{"type":"Feature","id":"C13-V01","properties":{"id":"C13-V01","blockId":"C13","type":"borde-calzada","status":"interpretacion-visual-por-contrastar","sourceSha256":"ef453bbe2db667f3916e718133b81210e7ff53a51b67c412941a613f5288a074"},"geometry":{"type":"LineString","coordinates":[[-110.9570860862732,29.073762357233452],[-110.95689296722412,29.07378111112647],[-110.95674812793732,29.073790488071698],[-110.95664083957672,29.07380924195959]]}},{"type":"Feature","id":"C13-P01","properties":{"id":"C13-P01","blockId":"C13","type":"borde-interior-peatonal","status":"interpretacion-visual-por-contrastar","sourceSha256":"ef453bbe2db667f3916e718133b81210e7ff53a51b67c412941a613f5288a074"},"geometry":{"type":"LineString","coordinates":[[-110.9570163488388,29.07377642265354],[-110.95689296722412,29.073790488071698],[-110.9567642211914,29.073799865016074]]}},{"type":"Feature","id":"C24-V01","properties":{"id":"C24-V01","blockId":"C24","type":"borde-calzada","status":"interpretacion-visual-por-contrastar","sourceSha256":"ef453bbe2db667f3916e718133b81210e7ff53a51b67c412941a613f5288a074"},"geometry":{"type":"LineString","coordinates":[[-110.95347046852112,29.07652851957779],[-110.95324516296387,29.076533207925507],[-110.95308423042297,29.0765425846203]]}},{"type":"Feature","id":"C24-P01","properties":{"id":"C24-P01","blockId":"C24","type":"borde-interior-peatonal","status":"interpretacion-visual-por-contrastar","sourceSha256":"ef453bbe2db667f3916e718133b81210e7ff53a51b67c412941a613f5288a074"},"geometry":{"type":"LineString","coordinates":[[-110.95343291759491,29.076561338007338],[-110.95323979854584,29.07656602635356],[-110.95308423042297,29.07657540304537]]}},{"type":"Feature","id":"C25-V01","properties":{"id":"C25-V01","blockId":"C25","type":"borde-calzada","status":"interpretacion-visual-por-contrastar","sourceSha256":"ef453bbe2db667f3916e718133b81210e7ff53a51b67c412941a613f5288a074"},"geometry":{"type":"LineString","coordinates":[[-110.95355093479156,29.077334912248098],[-110.95346510410309,29.07734897718053]]}},{"type":"Feature","id":"C25-V02","properties":{"id":"C25-V02","blockId":"C25","type":"borde-calzada","status":"interpretacion-visual-por-contrastar","sourceSha256":"ef453bbe2db667f3916e718133b81210e7ff53a51b67c412941a613f5288a074"},"geometry":{"type":"LineString","coordinates":[[-110.95338463783264,29.077363042111052],[-110.95329880714417,29.077377107039652]]}},{"type":"Feature","id":"C25-P01","properties":{"id":"C25-P01","blockId":"C25","type":"borde-interior-peatonal","status":"interpretacion-visual-por-contrastar","sourceSha256":"ef453bbe2db667f3916e718133b81210e7ff53a51b67c412941a613f5288a074"},"geometry":{"type":"LineString","coordinates":[[-110.95360457897186,29.077339600559117],[-110.95350801944733,29.077353665490918],[-110.95340609550476,29.07737241873033]]}},{"type":"Feature","id":"C26-V01","properties":{"id":"C26-V01","blockId":"C26","type":"borde-calzada","status":"interpretacion-visual-por-contrastar","sourceSha256":"ef453bbe2db667f3916e718133b81210e7ff53a51b67c412941a613f5288a074"},"geometry":{"type":"LineString","coordinates":[[-110.9527462720871,29.077466184876187],[-110.95267653465271,29.077480249790703]]}},{"type":"Feature","id":"C27-V01","properties":{"id":"C27-V01","blockId":"C27","type":"borde-calzada","status":"interpretacion-visual-por-contrastar","sourceSha256":"ef453bbe2db667f3916e718133b81210e7ff53a51b67c412941a613f5288a074"},"geometry":{"type":"LineString","coordinates":[[-110.95201671123505,29.076556649660894],[-110.95192551612854,29.076556649660894]]}},{"type":"Feature","id":"C27-P01","properties":{"id":"C27-P01","blockId":"C27","type":"borde-interior-peatonal","status":"interpretacion-visual-por-contrastar","sourceSha256":"ef453bbe2db667f3916e718133b81210e7ff53a51b67c412941a613f5288a074"},"geometry":{"type":"LineString","coordinates":[[-110.95201671123505,29.076584779736322],[-110.95193088054657,29.076584779736322]]}},{"type":"Feature","id":"C29-V01","properties":{"id":"C29-V01","blockId":"C29","type":"borde-calzada","status":"interpretacion-visual-por-contrastar","sourceSha256":"ef453bbe2db667f3916e718133b81210e7ff53a51b67c412941a613f5288a074"},"geometry":{"type":"LineString","coordinates":[[-110.95217227935791,29.075586157355914],[-110.95200061798096,29.075595534136887],[-110.95192551612854,29.07560022252706]]}},{"type":"Feature","id":"C29-P01","properties":{"id":"C29-P01","blockId":"C29","type":"borde-interior-peatonal","status":"interpretacion-visual-por-contrastar","sourceSha256":"ef453bbe2db667f3916e718133b81210e7ff53a51b67c412941a613f5288a074"},"geometry":{"type":"LineString","coordinates":[[-110.9520971775055,29.075623664474698],[-110.95199525356293,29.075628352863596]]}},{"type":"Feature","id":"C30-V01","properties":{"id":"C30-V01","blockId":"C30","type":"borde-calzada","status":"interpretacion-visual-por-contrastar","sourceSha256":"ef453bbe2db667f3916e718133b81210e7ff53a51b67c412941a613f5288a074"},"geometry":{"type":"LineString","coordinates":[[-110.95556259155273,29.07678637838548],[-110.95554649829865,29.076678546598952]]}},{"type":"Feature","id":"C32-V01","properties":{"id":"C32-V01","blockId":"C32","type":"borde-calzada","status":"interpretacion-visual-por-contrastar","sourceSha256":"ef453bbe2db667f3916e718133b81210e7ff53a51b67c412941a613f5288a074"},"geometry":{"type":"LineString","coordinates":[[-110.9563672542572,29.07728334081273],[-110.95634043216705,29.077170821227792],[-110.9563136100769,29.077058301519973]]}},{"type":"Feature","id":"C33-V01","properties":{"id":"C33-V01","blockId":"C33","type":"borde-calzada","status":"interpretacion-visual-por-contrastar","sourceSha256":"ef453bbe2db667f3916e718133b81210e7ff53a51b67c412941a613f5288a074"},"geometry":{"type":"LineString","coordinates":[[-110.95652282238007,29.077269275871327],[-110.95649600028992,29.077142691312357],[-110.9564745426178,29.07704423654786]]}}]}
